LANDSAT 4               
1 13367U 82072A   13027.55822512  .00000836  00000-0  60041-4 0  2638
2 13367  98.2728  48.5656 0015758 214.7973 310.9435 15.07322032642980
TDRS 1                  
1 13969U 83026B   13027.47324059  .00000000  00000-0  10000-3 0  5220
2 13969  13.8883   0.3271 0019962 129.0138 231.2125  0.98737974 82094
LANDSAT 5               
1 14780U 84021A   13027.86341297 -.00000127  00000-0 -15203-4 0  7038
2 14780  98.1174  94.1359 0002575  43.6800 316.4575 14.64279698537713
ERBS                    
1 15354U 84108B   13026.55610721  .00001563  00000-0  81065-4 0  1427
2 15354  57.0174  92.5901 0018912 356.2329   3.8571 15.22024789552355
TDRS 3                  
1 19548U 88091B   13026.85700455  .00000000  00000-0  10000-3 0    39
2 19548  13.9858  25.7391 0011221 326.7602  33.2282  1.00258625 76386
TDRS 4                  
1 19883U 89021B   13026.43460535 -.00000102  00000-0  00000+0 0  3549
2 19883  11.2873  32.2256 0014347 219.3177 140.6530  0.98482874259872
HST                     
1 20580U 90037B   13026.85252047  .00001106  00000-0  67421-4 0  1623
2 20580  28.4692 119.0748 0003110 275.2142  84.8087 15.03240716 48406
TDRS 5                  
1 21639U 91054B   13027.55225845  .00000100  00000-0  10000-3 0  2100
2 21639  12.5219  39.7354 0017568 341.0216 137.6119  1.00281326 78701
TOPEX/POSEIDON          
1 22076U 92052A   13026.10645544 -.00000082  00000-0 -92566-4 0  9710
2 22076  66.0385 211.0282 0007985 274.0118 222.9918 12.80972765957174
TDRS 6                  
1 22314U 93003B   13027.37731475 -.00000284  00000-0  10000-3 0  2405
2 22314  11.9394  42.5530 0013172 319.5630 214.5031  1.00261046 73423
TDRS 7                  
1 23613U 95035B   13026.79112700 -.00000193  00000-0  10000-3 0  3831
2 23613  13.4758  33.1734 0031824 346.4388 116.2070  1.00277224 64226
RXTE (XTE)              
1 23757U 95074A   13026.85994469  .00003919  00000-0  92083-4 0  8239
2 23757  22.9895 304.3684 0006336  49.7725 310.3348 15.36647829948218
TRMM                    
1 25063U 97074A   13026.69184120  .00012169  00000-0  16970-3 0  2275
2 25063  34.9604 250.6903 0001209 267.7532  92.3037 15.56008948865754
KIKU-7 (ETS-VII)        
1 25064U 97074B   13027.19484808  .00004950  00000-0  14106-3 0  8159
2 25064  34.9722 299.0304 0005118   8.0284 352.0514 15.35425593843085
ISS (ZARYA)             
1 25544U 98067A   13027.74490891  .00010566  00000-0  17843-3 0   990
2 25544  51.6488  85.9889 0013266 204.9159 255.1575 15.52139554812897
LANDSAT 7               
1 25682U 99020A   13027.74797824  .00000120  00000-0  36614-4 0  8394
2 25682  98.2100  99.3027 0001044 114.5006 245.6301 14.57108384733387
FUSE 1                  
1 25791U 99035A   13026.79474407  .00000327  00000-0  44013-4 0  4414
2 25791  24.9844 156.7597 0010429  98.9221  34.7759 14.42113906717050
TERRA                   
1 25994U 99068A   13027.76274778  .00000219  00000-0  58573-4 0  7916
2 25994  98.2098 104.6775 0001054  94.2053 265.9250 14.57117621697466
TDRS 8                  
1 26388U 00034A   13027.64653358 -.00000218  00000-0  10000-3 0  8150
2 26388   4.4419  73.6076 0003531 181.1128 193.9675  1.00264821 46176
EO-1                    
1 26619U 00075A   13027.77665155 -.00000488  00000-0 -86518-4 0  1414
2 26619  98.0510  93.6314 0011160 123.3986 236.8249 14.62849227649262
TIMED                   
1 26998U 01055B   13026.80430401  .00000286  00000-0  37475-4 0  3997
2 26998  74.0721 258.5106 0001687 319.1029  41.0024 14.85329209603329
TDRS 9                  
1 27389U 02011A   13026.64470535 -.00000261  00000-0  10000-3 0   691
2 27389   2.0124 119.3331 0013936 255.2122 302.6743  1.00277406 41414
AQUA                    
1 27424U 02022A   13027.98825407 -.00000671  00000-0  00000+0 0  5698
2 27424  98.2226 331.2782 0001683  63.5719 296.6144 14.57123834571109
TDRS 10                 
1 27566U 02055A   13027.44909360  .00000086  00000-0  10000-3 0  7880
2 27566   2.0115  64.7303 0011815 201.1220 208.4262  1.00279166 37246
SORCE                   
1 27651U 03004A   13026.87518222  .00000422  00000-0  64641-4 0   113
2 27651  39.9949 226.4861 0024690 175.5177 184.5844 14.84229080542237
GALEX                   
1 27783U 03017A   13026.76988249  .00000429  00000-0  65429-4 0  6995
2 27783  28.9997 144.8851 0003911 100.4585 259.6435 14.60568597520801
GP-B                    
1 28230U 04014A   13027.40354915  .00000276  00000-0  37076-4 0  6458
2 28230  89.9093 146.3200 0003378  88.2569 271.9038 14.76827887472540
AURA                    
1 28376U 04026A   13027.10123469  .00000375  00000-0  93393-4 0  7058
2 28376  98.2210 332.5918 0001036 104.4977 255.6352 14.57077658454026
SWIFT                   
1 28485U 04047A   13026.63832108  .00001715  00000-0  11327-3 0  3585
2 28485  20.5572 121.8279 0013400 256.4436 103.4529 14.95779048447191
THEMIS A                
1 30580U 07004A   13024.00000000 -.00000558  00000-0  00000+0 0  5126
2 30580  11.7265  83.0523 8254654  35.4810   5.7991  1.04699355 21169
THEMIS D                
1 30797U 07004D   13024.00000000 -.00000490  00000-0  00000+0 0  6661
2 30797   8.0672  49.1165 8228664  65.0785 114.4460  1.04879227 21018
THEMIS E                
1 30798U 07004E   13024.00000000 -.00000497  00000-0  00000+0 0  6771
2 30798   8.0688  64.1368 8226844  52.0034  74.5455  1.05251158 21174
AIM                     
1 31304U 07015A   13027.88378965  .00002565  00000-0  22621-3 0  9445
2 31304  97.8460 142.9966 0010915 147.8067 212.3822 14.97290302313951
C/NOFS                  
1 32765U 08017A   13026.32596272  .00009482  00000-0  33547-3 0  2268
2 32765  13.0021  69.5187 0244657 127.6409 322.4089 15.00842965260078
FGRST (GLAST)           
1 33053U 08029A   13027.19190247  .00001107  00000-0  53849-4 0  2534
2 33053  25.5838  78.1417 0013352 157.3442 242.3332 15.06769601255030
WISE                    
1 36119U 09071A   13027.09432680  .00001370  00000-0  73472-4 0  9046
2 36119  97.5203  35.5573 0003218 143.7440 216.4011 15.16639480172416
